0 COSMOS 1710 (GLONASS)
1 16396U 85118A   13280.50469902  .00000073  00000-0  00000+0 0  2999
2 16396 065.2092 117.7863 0011517 205.7374 132.7671 02.13103024216335
0 COSMOS 1710 (GLONASS)
1 16396U 85118A   13283.12329694  .00000067  00000-0  00000+0 0  3009
2 16396 065.2099 117.6992 0011510 205.7829 341.6244 02.13103111216381
0 COSMOS 1710 (GLONASS)
1 16396U 85118A   13287.38728676  .00000091  00000-0  00000+0 0  3012
2 16396 065.2108 117.5573 0011480 205.8347 012.7683 02.13103234216477
0 COSMOS 1710 (GLONASS)
1 16396U 85118A   13291.79491087  .00000060  00000-0  00000+0 0  3022
2 16396 065.2112 117.4101 0011625 205.5383 154.4559 02.13103005216579
0 COSMOS 1710 (GLONASS)
1 16396U 85118A   13294.08885212  .00000040  00000-0  00000+0 0  3033
2 16396 065.2123 117.3343 0011491 205.6764 114.1584 02.13103278216622
